JILIN-1 KUANFU 01       
1 45016U 20003A   26201.20260971  .00001637  00000+0  10207-3 0  9998
2 45016  97.5015 274.5145 0009752 179.6025 180.5214 15.10883499360318
JILIN-1 KUANFU-01B      
1 49003U 21061A   26201.31111757  .00000396  00000+0  28371-4 0  9995
2 49003  97.5194 276.8888 0005451 317.9660  42.1150 15.09817437278349
JILIN-1 KUANFU 01C      
1 52443U 22048A   26201.23743016  .00001569  00000+0  10126-3 0  9994
2 52443  97.5247 277.8074 0017736 202.0502 157.9966 15.09614493232185
JILIN-1 KUANFU 02A      
1 57696U 23127A   26201.25266282  .00002141  00000+0  13254-3 0  9997
2 57696  97.5566 294.6548 0010638 217.4111 142.6380 15.10836381160621
JILIN-01 KUANFU 02B 1   
1 61189U 24169A   26201.27228210  .00001957  00000+0  12752-3 0  9993
2 61189  97.5575 290.2886 0001134 311.9654  48.1478 15.09075965100817
JILIN-01 KUANFU 02B 2   
1 61190U 24169B   26201.25203343  .00002114  00000+0  13754-3 0  9992
2 61190  97.5567 289.6526 0004927 256.0981 103.9699 15.09038632100813
JILIN-01 KUANFU 02B 3   
1 61191U 24169C   26201.26085839  .00002164  00000+0  14037-3 0  9992
2 61191  97.5564 290.0943 0013540 188.1189 171.9823 15.09077008100810
JILIN-01 KUANFU 02B 4   
1 61192U 24169D   26201.22967453  .00001810  00000+0  11805-3 0  9997
2 61192  97.5528 289.5874 0014396 147.4670 212.7449 15.09064075100818
JILIN-01 KUANFU 02B 5   
1 61193U 24169E   26201.28291060  .00001791  00000+0  11683-3 0  9990
2 61193  97.5576 290.4402 0013636 170.1611 189.9888 15.09094303100824
JILIN-01 KUANFU 02B 6   
1 61194U 24169F   26201.24037111  .00001828  00000+0  11921-3 0  9998
2 61194  97.5556 290.2891 0016055 203.3151 156.7352 15.09054500100822
