{"fetched_at":"2026-07-20T18:29:29.624Z","source":"https://celestrak.org/NORAD/elements/gp.php?NAME=JILIN&FORMAT=JSON","constellation":"jilin-1-kuanfu","records":[{"OBJECT_NAME":"JILIN-1 KUANFU 01","OBJECT_ID":"2020-003A","EPOCH":"2026-07-20T04:51:45.478944","CLASSIFICATION_TYPE":"U","MEAN_MOTION":15.10883499,"ECCENTRICITY":0.00097526,"INCLINATION":97.5015,"RA_OF_ASC_NODE":274.5145,"ARG_OF_PERICENTER":179.6025,"MEAN_ANOMALY":180.5214,"EPHEMERIS_TYPE":0,"NORAD_CAT_ID":45016,"ELEMENT_SET_NO":999,"REV_AT_EPOCH":36031,"BSTAR":0.00010206987,"MEAN_MOTION_DOT":0.00001637,"MEAN_MOTION_DDOT":0},{"OBJECT_NAME":"JILIN-1 KUANFU-01B","OBJECT_ID":"2021-061A","EPOCH":"2026-07-20T07:28:00.558048","CLASSIFICATION_TYPE":"U","MEAN_MOTION":15.09817437,"ECCENTRICITY":0.00054518,"INCLINATION":97.5194,"RA_OF_ASC_NODE":276.8888,"ARG_OF_PERICENTER":317.966,"MEAN_ANOMALY":42.115,"EPHEMERIS_TYPE":0,"NORAD_CAT_ID":49003,"ELEMENT_SET_NO":999,"REV_AT_EPOCH":27834,"BSTAR":0.00002837128,"MEAN_MOTION_DOT":0.00000396,"MEAN_MOTION_DDOT":0},{"OBJECT_NAME":"JILIN-1 KUANFU 01C","OBJECT_ID":"2022-048A","EPOCH":"2026-07-20T05:41:53.965824","CLASSIFICATION_TYPE":"U","MEAN_MOTION":15.09614493,"ECCENTRICITY":0.00177366,"INCLINATION":97.5247,"RA_OF_ASC_NODE":277.8074,"ARG_OF_PERICENTER":202.0502,"MEAN_ANOMALY":157.9966,"EPHEMERIS_TYPE":0,"NORAD_CAT_ID":52443,"ELEMENT_SET_NO":999,"REV_AT_EPOCH":23218,"BSTAR":0.00010125829,"MEAN_MOTION_DOT":0.00001569,"MEAN_MOTION_DDOT":0},{"OBJECT_NAME":"JILIN-1 KUANFU 02A","OBJECT_ID":"2023-127A","EPOCH":"2026-07-20T06:03:50.067648","CLASSIFICATION_TYPE":"U","MEAN_MOTION":15.10836381,"ECCENTRICITY":0.00106381,"INCLINATION":97.5566,"RA_OF_ASC_NODE":294.6548,"ARG_OF_PERICENTER":217.4111,"MEAN_ANOMALY":142.638,"EPHEMERIS_TYPE":0,"NORAD_CAT_ID":57696,"ELEMENT_SET_NO":999,"REV_AT_EPOCH":16062,"BSTAR":0.00013253655,"MEAN_MOTION_DOT":0.00002141,"MEAN_MOTION_DDOT":0},{"OBJECT_NAME":"JILIN-01 KUANFU 02B 1","OBJECT_ID":"2024-169A","EPOCH":"2026-07-20T06:32:05.173440","CLASSIFICATION_TYPE":"U","MEAN_MOTION":15.09075965,"ECCENTRICITY":0.00011342,"INCLINATION":97.5575,"RA_OF_ASC_NODE":290.2886,"ARG_OF_PERICENTER":311.9654,"MEAN_ANOMALY":48.1478,"EPHEMERIS_TYPE":0,"NORAD_CAT_ID":61189,"ELEMENT_SET_NO":999,"REV_AT_EPOCH":10081,"BSTAR":0.00012752404,"MEAN_MOTION_DOT":0.00001957,"MEAN_MOTION_DDOT":0},{"OBJECT_NAME":"JILIN-01 KUANFU 02B 2","OBJECT_ID":"2024-169B","EPOCH":"2026-07-20T06:02:55.688352","CLASSIFICATION_TYPE":"U","MEAN_MOTION":15.09038632,"ECCENTRICITY":0.00049278,"INCLINATION":97.5567,"RA_OF_ASC_NODE":289.6526,"ARG_OF_PERICENTER":256.0981,"MEAN_ANOMALY":103.9699,"EPHEMERIS_TYPE":0,"NORAD_CAT_ID":61190,"ELEMENT_SET_NO":999,"REV_AT_EPOCH":10081,"BSTAR":0.00013754384,"MEAN_MOTION_DOT":0.00002114,"MEAN_MOTION_DDOT":0},{"OBJECT_NAME":"JILIN-01 KUANFU 02B 3","OBJECT_ID":"2024-169C","EPOCH":"2026-07-20T06:15:38.164896","CLASSIFICATION_TYPE":"U","MEAN_MOTION":15.09077008,"ECCENTRICITY":0.001354,"INCLINATION":97.5564,"RA_OF_ASC_NODE":290.0943,"ARG_OF_PERICENTER":188.1189,"MEAN_ANOMALY":171.9823,"EPHEMERIS_TYPE":0,"NORAD_CAT_ID":61191,"ELEMENT_SET_NO":999,"REV_AT_EPOCH":10081,"BSTAR":0.00014036725,"MEAN_MOTION_DOT":0.00002164,"MEAN_MOTION_DDOT":0},{"OBJECT_NAME":"JILIN-01 KUANFU 02B 4","OBJECT_ID":"2024-169D","EPOCH":"2026-07-20T05:30:43.879392","CLASSIFICATION_TYPE":"U","MEAN_MOTION":15.09064075,"ECCENTRICITY":0.00143961,"INCLINATION":97.5528,"RA_OF_ASC_NODE":289.5874,"ARG_OF_PERICENTER":147.467,"MEAN_ANOMALY":212.7449,"EPHEMERIS_TYPE":0,"NORAD_CAT_ID":61192,"ELEMENT_SET_NO":999,"REV_AT_EPOCH":10081,"BSTAR":0.00011804787,"MEAN_MOTION_DOT":0.0000181,"MEAN_MOTION_DDOT":0},{"OBJECT_NAME":"JILIN-01 KUANFU 02B 5","OBJECT_ID":"2024-169E","EPOCH":"2026-07-20T06:47:23.475840","CLASSIFICATION_TYPE":"U","MEAN_MOTION":15.09094303,"ECCENTRICITY":0.00136363,"INCLINATION":97.5576,"RA_OF_ASC_NODE":290.4402,"ARG_OF_PERICENTER":170.1611,"MEAN_ANOMALY":189.9888,"EPHEMERIS_TYPE":0,"NORAD_CAT_ID":61193,"ELEMENT_SET_NO":999,"REV_AT_EPOCH":10082,"BSTAR":0.00011683002,"MEAN_MOTION_DOT":0.00001791,"MEAN_MOTION_DDOT":0},{"OBJECT_NAME":"JILIN-01 KUANFU 02B 6","OBJECT_ID":"2024-169F","EPOCH":"2026-07-20T05:46:08.063904","CLASSIFICATION_TYPE":"U","MEAN_MOTION":15.090545,"ECCENTRICITY":0.00160553,"INCLINATION":97.5556,"RA_OF_ASC_NODE":290.2891,"ARG_OF_PERICENTER":203.3151,"MEAN_ANOMALY":156.7352,"EPHEMERIS_TYPE":0,"NORAD_CAT_ID":61194,"ELEMENT_SET_NO":999,"REV_AT_EPOCH":10082,"BSTAR":0.00011921052,"MEAN_MOTION_DOT":0.00001828,"MEAN_MOTION_DDOT":0}]}
